[{"OBJECT_NAME":"STARLINK-4491","OBJECT_ID":"2022-097W","EPOCH":"2026-03-09T10:45:37.214496","MEAN_MOTION":15.08840309,"ECCENTRICITY":4.085e-5,"INCLINATION":53.2169,"RA_OF_ASC_NODE":115.2102,"ARG_OF_PERICENTER":62.4856,"MEAN_ANOMALY":297.6178,"EPHEMERIS_TYPE":0,"CLASSIFICATION_TYPE":"U","NORAD_CAT_ID":53408,"ELEMENT_SET_NO":999,"REV_AT_EPOCH":19861,"BSTAR":3.1879086e-5,"MEAN_MOTION_DOT":2.2e-6,"MEAN_MOTION_DDOT":0},{"OBJECT_NAME":"OBJECT E","OBJECT_ID":"2025-013E","EPOCH":"2026-03-09T23:59:52.369152","MEAN_MOTION":15.10347623,"ECCENTRICITY":0.00085591,"INCLINATION":97.6477,"RA_OF_ASC_NODE":238.3736,"ARG_OF_PERICENTER":6.9171,"MEAN_ANOMALY":353.2174,"EPHEMERIS_TYPE":0,"CLASSIFICATION_TYPE":"U","NORAD_CAT_ID":62733,"ELEMENT_SET_NO":999,"REV_AT_EPOCH":6224,"BSTAR":0.00032920786,"MEAN_MOTION_DOT":5.34e-5,"MEAN_MOTION_DDOT":0}]
